GLOBALSTAR M067         
1 32263U 07048A   24305.55634517 -.00000064  00000+0  24514-3 0  9994
2 32263  51.9750 344.9190 0000851 198.7642 327.0453 12.40658316781103
GLOBALSTAR M070         
1 32264U 07048B   24305.87584547 -.00000062  00000+0  23269-3 0  9991
2 32264  51.9733 104.0234 0000715  91.2503  59.7604 12.62304595784832
GLOBALSTAR M066         
1 32265U 07048C   24305.52637462 -.00000034  00000+0  46457-3 0  9992
2 32265  51.9689 332.0406 0000186 208.8544 316.8468 12.42164544787902
GLOBALSTAR M068         
1 32266U 07048D   24305.87777132 -.00000047  00000+0  31278-3 0  9999
2 32266  51.9883 278.2109 0001258  13.0087  21.0997 12.62805732788714
GLOBALSTAR M079         
1 37188U 10054A   24305.91242422 -.00000086  00000+0  98858-4 0  9993
2 37188  52.0015 114.6907 0001136 108.9458  55.8554 12.62266584647625
GLOBALSTAR M074         
1 37189U 10054B   24305.93703352 -.00000076  00000+0  15272-3 0  9997
2 37189  51.9994 113.9700 0000746  98.7629  60.2656 12.62258601648237
GLOBALSTAR M076         
1 37190U 10054C   24305.88217175 -.00000079  00000+0  13722-3 0  9997
2 37190  52.0007 114.2930 0000852 119.3382  26.7411 12.62273026647940
GLOBALSTAR M077         
1 37191U 10054D   24305.79094591 -.00000094  00000+0  52693-4 0  9991
2 37191  52.0075  71.3587 0000720 108.2715  43.7455 12.62266130648304
